     2.11           N: GPS NAV DATA                         RINEX VERSION / TYPE
teqc  2019Feb25                         20221121 12:23:11UTCPGM / RUN BY / DATE
OSX ker:10.11.6|Core i5|gcc 4.3 -m64|OSX ker:10.10+|=+      COMMENT
    7.4506D-09  2.2352D-08 -5.9605D-08 -1.1921D-07          ION ALPHA
    8.6016D+04  8.1920D+04 -1.3107D+05 -5.2429D+05          ION BETA
    9.313225746155D-10 2.664535259100D-15   503808     1531 DELTA-UTC: A0,A1,T,W
                                                            END OF HEADER
17 09  5 13 20  0  0.0 5.881953984499D-05 1.932676241267D-12 0.000000000000D+00
    1.020000000000D+02-1.812500000000D+00 4.639478967207D-09-1.300285256957D+00
   -1.173466444016D-07 4.487488302402D-03 6.636604666710D-06 5.153670665741D+03
    3.312000000000D+05 1.508742570877D-07-1.176286761088D+00-1.303851604462D-07
    9.593414841721D-01 2.531562500000D+02-2.650067260179D+00-7.917115493925D-09
    2.039370662260D-10 1.000000000000D+00 1.531000000000D+03 0.000000000000D+00
    2.800000000000D+00 0.000000000000D+00-1.024454832077D-08 1.020000000000D+02
    3.240180000000D+05 4.000000000000D+00
11 09  5 13 20  0  0.0-2.414919435978D-06-1.364242052659D-12 0.000000000000D+00
    9.200000000000D+01-8.156250000000D+00 6.261689395926D-09 2.064135947822D+00
   -4.172325134277D-07 9.329421911389D-03 6.543472409248D-06 5.153678163528D+03
    3.312000000000D+05-1.993030309677D-07-3.584096526749D-01-8.754432201386D-08
    8.896891997434D-01 2.145000000000D+02 6.962046947143D-01-8.786437418958D-09
   -2.089372745047D-10 1.000000000000D+00 1.531000000000D+03 0.000000000000D+00
    2.000000000000D+00 0.000000000000D+00-1.164153218269D-08 9.200000000000D+01
    3.240180000000D+05 4.000000000000D+00
30 09  5 13 20  0  0.0 1.460253261030D-04 2.728484105319D-12 0.000000000000D+00
    7.400000000000D+01-5.421875000000D+01 4.621978238232D-09-3.172052512719D-01
   -2.760440111160D-06 1.134631095920D-02 8.733943104744D-06 5.153601524353D+03
    3.312000000000D+05-1.154839992523D-07-2.283291338466D+00 1.136213541031D-07
    9.518798207696D-01 2.060312500000D+02 1.415941630715D+00-8.183555163635D-09
    1.650068731986D-10 1.000000000000D+00 1.531000000000D+03 0.000000000000D+00
    2.800000000000D+00 0.000000000000D+00-8.381903171539D-09 7.400000000000D+01
    3.247860000000D+05 4.000000000000D+00
32 09  5 13 20  0  0.0 2.619824372232D-04-5.229594535194D-12 0.000000000000D+00
    2.200000000000D+01 9.809375000000D+01 4.279463971137D-09 2.997591975795D+00
    4.822388291359D-06 1.333829248324D-02 7.759779691696D-06 5.153576011658D+03
    3.312000000000D+05 2.328306436539D-07 9.859796146486D-01 1.825392246246D-07
    9.642777530561D-01 2.270312500000D+02-1.167847986905D+00-7.684248651229D-09
    2.464388365953D-11 1.000000000000D+00 1.531000000000D+03 0.000000000000D+00
    2.000000000000D+00 0.000000000000D+00-3.259629011154D-09 2.200000000000D+01
    3.250260000000D+05 4.000000000000D+00
17 09  5 13 19 59 44.0 5.882140249014D-05 1.932676241267D-12 0.000000000000D+00
    1.700000000000D+01-1.812500000000D+00 4.639478967207D-09-1.302619156962D+00
   -1.173466444016D-07 4.487491212785D-03 6.636604666710D-06 5.153670665741D+03
    3.311840000000D+05 1.508742570877D-07-1.176286639666D+00-1.303851604462D-07
    9.593414783204D-01 2.531562500000D+02-2.650067134368D+00-7.917115493925D-09
    2.039370662260D-10 1.000000000000D+00 1.531000000000D+03 0.000000000000D+00
    2.000000000000D+00 0.000000000000D+00-1.024454832077D-08 1.700000000000D+01
    3.252360000000D+05 4.000000000000D+00
31 09  5 13 20  0  0.0-6.014620885253D-05-9.094947017729D-13 0.000000000000D+00
    5.400000000000D+01-8.100000000000D+01 4.276606709264D-09 2.076461031177D+00
   -4.077330231667D-06 7.072446984239D-03 4.276633262634D-06 5.153711696625D+03
    3.312000000000D+05 9.685754776001D-08 2.993734249117D+00-7.823109626770D-08
    9.728893666215D-01 2.967812500000D+02-1.143915577544D+00-7.947473901331D-09
   -3.003696544589D-10 1.000000000000D+00 1.531000000000D+03 0.000000000000D+00
    2.000000000000D+00 0.000000000000D+00-1.303851604462D-08 5.400000000000D+01
    3.270060000000D+05 4.000000000000D+00
20 09  5 13 20  0  0.0 8.273404091597D-05-1.023181539495D-12 0.000000000000D+00
    5.400000000000D+01 8.262500000000D+01 4.853059292256D-09 1.309095212956D-01
    3.987923264503D-06 3.992677084170D-03 8.400529623032D-06 5.153615356445D+03
    3.312000000000D+05 5.587935447693D-09 8.767040726208D-01-1.862645149231D-09
    9.423514622752D-01 2.099375000000D+02 1.356010578826D+00-8.184983794572D-09
   -4.000166622996D-11 1.000000000000D+00 1.531000000000D+03 0.000000000000D+00
    2.000000000000D+00 0.000000000000D+00-6.519258022308D-09 5.400000000000D+01
    3.282360000000D+05 4.000000000000D+00
14 09  5 13 19 59 44.0-1.111668534577D-04 5.911715561524D-12 0.000000000000D+00
    1.300000000000D+01 3.840625000000D+01 4.101956577242D-09-1.883484626855D+00
    2.132728695869D-06 4.396950243972D-03 3.192573785782D-06 5.153604579926D+03
    3.311840000000D+05 4.656612873077D-08 1.986203097949D+00 6.519258022308D-08
    9.882371869027D-01 3.323437500000D+02-2.145605839564D+00-7.941759377584D-09
    1.375057276655D-10 1.000000000000D+00 1.531000000000D+03 0.000000000000D+00
    2.000000000000D+00 0.000000000000D+00-9.313225746155D-09 1.300000000000D+01
    3.304560000000D+05 4.000000000000D+00
14 09  5 13 21 59 44.0-1.111240126193D-04 5.911715561524D-12 0.000000000000D+00
    1.400000000000D+01 4.337500000000D+01 4.161959076587D-09-8.334971792117D-01
    2.397224307060D-06 4.396721604280D-03 3.542751073837D-06 5.153602598190D+03
    3.383840000000D+05-4.842877388000D-08 1.986145837872D+00 1.043081283569D-07
    9.882378291237D-01 3.266250000000D+02-2.145372406115D+00-8.017476817234D-09
    1.300054152474D-10 1.000000000000D+00 1.531000000000D+03 0.000000000000D+00
    2.000000000000D+00 0.000000000000D+00-9.313225746155D-09 1.400000000000D+01
    3.312180000000D+05 4.000000000000D+00
30 09  5 13 22  0  0.0 1.460453495383D-04 2.728484105319D-12 0.000000000000D+00
    7.500000000000D+01-6.368750000000D+01 4.643407702283D-09 7.329502695664D-01
   -3.278255462646D-06 1.134725729935D-02 9.329989552498D-06 5.153603624344D+03
    3.384000000000D+05-1.695007085800D-07-2.283349874207D+00 3.725290298462D-09
    9.518806736508D-01 1.994687500000D+02 1.416011874190D+00-8.166768750128D-09
    9.500395729616D-11 1.000000000000D+00 1.531000000000D+03 0.000000000000D+00
    2.800000000000D+00 0.000000000000D+00-8.381903171539D-09 7.500000000000D+01
    3.312180000000D+05 4.000000000000D+00
12 09  5 13 22  0  0.0-2.815886400640D-04 5.229594535194D-12 0.000000000000D+00
    4.500000000000D+01-6.784375000000D+01 4.134100773320D-09-2.940916624685D+00
   -3.537163138390D-06 3.356191911735D-03 9.354203939438D-06 5.153668289185D+03
    3.384000000000D+05-3.166496753693D-08-2.235809321518D+00 5.774199962616D-08
    9.668050683861D-01 2.018125000000D+02-7.232553797925D-01-7.682462862558D-09
    1.667926618696D-10 1.000000000000D+00 1.531000000000D+03 0.000000000000D+00
    2.000000000000D+00 0.000000000000D+00-1.164153218269D-08 4.500000000000D+01
    3.312180000000D+05 4.000000000000D+00
31 09  5 13 22  0  0.0-6.015319377184D-05-9.094947017729D-13 0.000000000000D+00
    8.600000000000D+01-7.850000000000D+01 4.380182452181D-09 3.126604532680D+00
   -3.825873136520D-06 7.072659907863D-03 4.546716809273D-06 5.153711452484D+03
    3.384000000000D+05 1.266598701477D-07 2.993676007422D+00 1.471489667892D-07
    9.728877574116D-01 2.984687500000D+02-1.143902348376D+00-7.959974422028D-09
   -1.182192100189D-10 1.000000000000D+00 1.531000000000D+03 0.000000000000D+00
    2.000000000000D+00 0.000000000000D+00-1.303851604462D-08 8.600000000000D+01
    3.312180000000D+05 4.000000000000D+00
32 09  5 13 22  0  0.0 2.619451843202D-04-5.229594535194D-12 0.000000000000D+00
    8.600000000000D+01 8.843750000000D+01 4.101242261774D-09-2.235312846621D+00
    4.885718226433D-06 1.333713007625D-02 7.757917046547D-06 5.153578378677D+03
    3.384000000000D+05 8.568167686462D-08 9.859242212555D-01 2.682209014893D-07
    9.642782840953D-01 2.283750000000D+02-1.167890686558D+00-7.678176969747D-09
    8.214627886510D-11 1.000000000000D+00 1.531000000000D+03 0.000000000000D+00
    2.000000000000D+00 0.000000000000D+00-3.259629011154D-09 8.600000000000D+01
    3.312180000000D+05 4.000000000000D+00
20 09  5 13 22  0  0.0 8.272659033537D-05-1.023181539495D-12 0.000000000000D+00
    6.200000000000D+01 7.568750000000D+01 4.713053460452D-09 1.180952322833D+00
    3.913417458534D-06 3.993185469881D-03 8.175149559975D-06 5.153616928101D+03
    3.384000000000D+05-5.587935447693D-08 8.766449604899D-01-1.117587089539D-08
    9.423514008326D-01 2.090312500000D+02 1.356186229937D+00-8.151768125291D-09
    3.571577341961D-12 1.000000000000D+00 1.531000000000D+03 0.000000000000D+00
    2.000000000000D+00 0.000000000000D+00-6.519258022308D-09 6.200000000000D+01
    3.312180000000D+05 4.000000000000D+00
 4 09  5 13 22  0  0.0-8.980976417661D-05-1.534772309242D-11 0.000000000000D+00
    4.600000000000D+01 3.500000000000D+00 4.948420407287D-09 1.591830689589D+00
    2.458691596985D-07 8.597391191870D-03 7.873401045799D-06 5.153734035492D+03
    3.384000000000D+05-1.024454832077D-07-1.407711925081D-01 4.284083843231D-08
    9.409132177723D-01 2.199062500000D+02 4.860484373198D-01-8.138553289126D-09
   -4.193031799462D-10 1.000000000000D+00 1.531000000000D+03 0.000000000000D+00
    2.000000000000D+00 0.000000000000D+00-6.053596735001D-09 4.600000000000D+01
    3.312180000000D+05 4.000000000000D+00
